{"type": "FeatureCollection", "features": [ {"type": "Feature", "properties": {"norad_id": 31243, "name": "FENGYUN 1C DEB", "group": "fengyun-1c-debris", "lat": -44.25200737429689, "lon": -170.77560899983305, "alt_km": 834.6205663904557, "timestamp": "2025-12-03T06:58:43.519184+00:00", "meta": {"OBJECT_NAME": "FENGYUN 1C DEB", "OBJECT_ID": "1999-025BLZ", "EPOCH": "2025-12-02T09:26:08.464128", "MEAN_MOTION": 14.07125765, "ECCENTRICITY": 0.00658053, "INCLINATION": 98.7507, "RA_OF_ASC_NODE": 16.9856, "ARG_OF_PERICENTER": 196.9794, "MEAN_ANOMALY": 162.9174, "EPHEMERIS_TYPE": 0, "CLASSIFICATION_TYPE": "U", "NORAD_CAT_ID": 31243, "ELEMENT_SET_NO": 999, "REV_AT_EPOCH": 69162, "BSTAR": 0.0010846711, "MEAN_MOTION_DOT": 1.809e-05, "MEAN_MOTION_DDOT": 0}, "tle": {"line1": "1 31243U 99025BLZ 25336.39315352  .00001809  00000+0  10847-2 0  9997", "line2": "2 31243  98.7507  16.9856 0065805 196.9794 162.9174 14.07125765691627"}}, "geometry": {"type": "Point", "coordinates": [-170.77560899983305, -44.25200737429689]}}, {"type": "Feature", "properties": {"norad_id": 31244, "name": "FENGYUN 1C DEB", "group": "fengyun-1c-debris", "lat": -76.73737960191974, "lon": 83.38928919922778, "alt_km": 864.2261906806425, "timestamp": "2025-12-03T06:58:43.519194+00:00", "meta": {"OBJECT_NAME": "FENGYUN 1C DEB", "OBJECT_ID": "1999-025BMA", "EPOCH": "2025-11-29T11:08:59.157312", "MEAN_MOTION": 14.06218558, "ECCENTRICITY": 0.01023846, "INCLINATION": 99.0353, "RA_OF_ASC_NODE": 37.1115, "ARG_OF_PERICENTER": 211.8178, "MEAN_ANOMALY": 147.6779, "EPHEMERIS_TYPE": 0, "CLASSIFICATION_TYPE": "U", "NORAD_CAT_ID": 31244, "ELEMENT_SET_NO": 999, "REV_AT_EPOCH": 57453, "BSTAR": 0.00052742349, "MEAN_MOTION_DOT": 8.65e-06, "MEAN_MOTION_DDOT": 0}, "tle": {"line1": "1 31244U 99025BMA 25333.46457358  .00000865  00000+0  52742-3 0  9998", "line2": "2 31244  99.0353  37.1115 0102384 211.8178 147.6779 14.06218558574534"}}, "geometry": {"type": "Point", "coordinates": [83.38928919922778, -76.73737960191974]}}, {"type": "Feature", "properties": {"norad_id": 31247, "name": "FENGYUN 1C DEB", "group": "fengyun-1c-debris", "lat": -67.09307337309563, "lon": 22.174973207404264, "alt_km": 923.2461169972985, "timestamp": "2025-12-03T06:58:43.519204+00:00", "meta": {"OBJECT_NAME": "FENGYUN 1C DEB", "OBJECT_ID": "1999-025BMD", "EPOCH": "2025-11-26T21:58:44.154048", "MEAN_MOTION": 14.05045725, "ECCENTRICITY": 0.0058143, "INCLINATION": 99.365, "RA_OF_ASC_NODE": 218.5854, "ARG_OF_PERICENTER": 105.8084, "MEAN_ANOMALY": 314.3757, "EPHEMERIS_TYPE": 0, "CLASSIFICATION_TYPE": "U", "NORAD_CAT_ID": 31247, "ELEMENT_SET_NO": 999, "REV_AT_EPOCH": 95299, "BSTAR": 0.0014532, "MEAN_MOTION_DOT": 2.331e-05, "MEAN_MOTION_DDOT": 0}, "tle": {"line1": "1 31247U 99025BMD 25330.91578882  .00002331  00000+0  14532-2 0  9998", "line2": "2 31247  99.3650 218.5854 0058143 105.8084 314.3757 14.05045725952998"}}, "geometry": {"type": "Point", "coordinates": [22.174973207404264, -67.09307337309563]}}, {"type": "Feature", "properties": {"norad_id": 31248, "name": "FENGYUN 1C DEB", "group": "fengyun-1c-debris", "lat": 18.785968013306984, "lon": -142.07211601186157, "alt_km": 999.0507143660134, "timestamp": "2025-12-03T06:58:43.519217+00:00", "meta": {"OBJECT_NAME": "FENGYUN 1C DEB", "OBJECT_ID": "1999-025BME", "EPOCH": "2025-12-02T02:45:39.580416", "MEAN_MOTION": 13.92758198, "ECCENTRICITY": 0.0109757, "INCLINATION": 99.2654, "RA_OF_ASC_NODE": 33.5687, "ARG_OF_PERICENTER": 340.39, "MEAN_ANOMALY": 48.6423, "EPHEMERIS_TYPE": 0, "CLASSIFICATION_TYPE": "U", "NORAD_CAT_ID": 31248, "ELEMENT_SET_NO": 999, "REV_AT_EPOCH": 94676, "BSTAR": 0.00064820906, "MEAN_MOTION_DOT": 8.36e-06, "MEAN_MOTION_DDOT": 0}, "tle": {"line1": "1 31248U 99025BME 25336.11504144  .00000836  00000+0  64821-3 0  9992", "line2": "2 31248  99.2654  33.5687 0109757 340.3900  48.6423 13.92758198946767"}}, "geometry": {"type": "Point", "coordinates": [-142.07211601186157, 18.785968013306984]}}, {"type": "Feature", "properties": {"norad_id": 31250, "name": "FENGYUN 1C DEB", "group": "fengyun-1c-debris", "lat": 3.443962647233772, "lon": -172.4569439113457, "alt_km": 809.7876232485669, "timestamp": "2025-12-03T06:58:43.519228+00:00", "meta": {"OBJECT_NAME": "FENGYUN 1C DEB", "OBJECT_ID": "1999-025BMG", "EPOCH": "2025-11-27T20:53:06.321984", "MEAN_MOTION": 14.02996088, "ECCENTRICITY": 0.01342537, "INCLINATION": 98.3888, "RA_OF_ASC_NODE": 183.0534, "ARG_OF_PERICENTER": 339.6638, "MEAN_ANOMALY": 19.9213, "EPHEMERIS_TYPE": 0, "CLASSIFICATION_TYPE": "U", "NORAD_CAT_ID": 31250, "ELEMENT_SET_NO": 999, "REV_AT_EPOCH": 95309, "BSTAR": 0.0013427936, "MEAN_MOTION_DOT": 2.218e-05, "MEAN_MOTION_DDOT": 0}, "tle": {"line1": "1 31250U 99025BMG 25331.87021206  .00002218  00000+0  13428-2 0  9998", "line2": "2 31250  98.3888 183.0534 0134253 339.6638  19.9213 14.02996088953095"}}, "geometry": {"type": "Point", "coordinates": [-172.4569439113457, 3.443962647233772]}}, {"type": "Feature", "properties": {"norad_id": 31252, "name": "FENGYUN 1C DEB", "group": "fengyun-1c-debris", "lat": -60.37069849509127, "lon": 161.4917289614605, "alt_km": 648.4553824053528, "timestamp": "2025-12-03T06:58:43.519238+00:00", "meta": {"OBJECT_NAME": "FENGYUN 1C DEB", "OBJECT_ID": "1999-025BMJ", "EPOCH": "2025-12-02T19:51:33.141024", "MEAN_MOTION": 14.40123577, "ECCENTRICITY": 0.0213283, "INCLINATION": 98.318, "RA_OF_ASC_NODE": 355.9469, "ARG_OF_PERICENTER": 202.0886, "MEAN_ANOMALY": 157.1008, "EPHEMERIS_TYPE": 0, "CLASSIFICATION_TYPE": "U", "NORAD_CAT_ID": 31252, "ELEMENT_SET_NO": 999, "REV_AT_EPOCH": 97064, "BSTAR": 0.00054944, "MEAN_MOTION_DOT": 2.218e-05, "MEAN_MOTION_DDOT": 0}, "tle": {"line1": "1 31252U 99025BMJ 25336.82746691  .00002218  00000+0  54944-3 0  9991", "line2": "2 31252  98.3180 355.9469 0213283 202.0886 157.1008 14.40123577970642"}}, "geometry": {"type": "Point", "coordinates": [161.4917289614605, -60.37069849509127]}}, {"type": "Feature", "properties": {"norad_id": 31253, "name": "FENGYUN 1C DEB", "group": "fengyun-1c-debris", "lat": 22.60804813428427, "lon": -133.86632045833753, "alt_km": 716.7702772549619, "timestamp": "2025-12-03T06:58:43.519248+00:00", "meta": {"OBJECT_NAME": "FENGYUN 1C DEB", "OBJECT_ID": "1999-025BMK", "EPOCH": "2025-12-01T21:45:02.370816", "MEAN_MOTION": 14.03572827, "ECCENTRICITY": 0.02905823, "INCLINATION": 99.0775, "RA_OF_ASC_NODE": 40.9326, "ARG_OF_PERICENTER": 120.8798, "MEAN_ANOMALY": 242.1292, "EPHEMERIS_TYPE": 0, "CLASSIFICATION_TYPE": "U", "NORAD_CAT_ID": 31253, "ELEMENT_SET_NO": 999, "REV_AT_EPOCH": 68846, "BSTAR": 0.00057636154, "MEAN_MOTION_DOT": 1.271e-05, "MEAN_MOTION_DDOT": 0}, "tle": {"line1": "1 31253U 99025BMK 25335.90627744  .00001271  00000+0  57636-3 0  9996", "line2": "2 31253  99.0775  40.9326 0290582 120.8798 242.1292 14.03572827688461"}}, "geometry": {"type": "Point", "coordinates": [-133.86632045833753, 22.60804813428427]}}, {"type": "Feature", "properties": {"norad_id": 31254, "name": "FENGYUN 1C DEB", "group": "fengyun-1c-debris", "lat": 2.957771710252595, "lon": -152.41482546166446, "alt_km": 708.1400108227526, "timestamp": "2025-12-03T06:58:43.519259+00:00", "meta": {"OBJECT_NAME": "FENGYUN 1C DEB", "OBJECT_ID": "1999-025BML", "EPOCH": "2025-11-27T22:14:27.134880", "MEAN_MOTION": 14.36276197, "ECCENTRICITY": 0.0150752, "INCLINATION": 98.4636, "RA_OF_ASC_NODE": 21.8734, "ARG_OF_PERICENTER": 246.3529, "MEAN_ANOMALY": 292.2282, "EPHEMERIS_TYPE": 0, "CLASSIFICATION_TYPE": "U", "NORAD_CAT_ID": 31254, "ELEMENT_SET_NO": 999, "REV_AT_EPOCH": 97303, "BSTAR": 0.00058845, "MEAN_MOTION_DOT": 1.909e-05, "MEAN_MOTION_DDOT": 0}, "tle": {"line1": "1 31254U 99025BML 25331.92670295  .00001909  00000+0  58845-3 0  9995", "line2": "2 31254  98.4636  21.8734 0150752 246.3529 292.2282 14.36276197973034"}}, "geometry": {"type": "Point", "coordinates": [-152.41482546166446, 2.957771710252595]}}, {"type": "Feature", "properties": {"norad_id": 31255, "name": "FENGYUN 1C DEB", "group": "fengyun-1c-debris", "lat": -77.80062112480626, "lon": -156.61566377625238, "alt_km": 868.8135946999155, "timestamp": "2025-12-03T06:58:43.519269+00:00", "meta": {"OBJECT_NAME": "FENGYUN 1C DEB", "OBJECT_ID": "1999-025BMM", "EPOCH": "2025-12-02T10:54:53.872416", "MEAN_MOTION": 14.09706977, "ECCENTRICITY": 0.0271065, "INCLINATION": 99.3087, "RA_OF_ASC_NODE": 153.1744, "ARG_OF_PERICENTER": 12.1458, "MEAN_ANOMALY": 348.6076, "EPHEMERIS_TYPE": 0, "CLASSIFICATION_TYPE": "U", "NORAD_CAT_ID": 31255, "ELEMENT_SET_NO": 999, "REV_AT_EPOCH": 96656, "BSTAR": 0.0003084095, "MEAN_MOTION_DOT": 7.1e-06, "MEAN_MOTION_DDOT": 0}, "tle": {"line1": "1 31255U 99025BMM 25336.45479019  .00000710  00000+0  30841-3 0  9995", "line2": "2 31255  99.3087 153.1744 0271065  12.1458 348.6076 14.09706977966567"}}, "geometry": {"type": "Point", "coordinates": [-156.61566377625238, -77.80062112480626]}}, {"type": "Feature", "properties": {"norad_id": 31256, "name": "FENGYUN 1C DEB", "group": "fengyun-1c-debris", "lat": 9.275175491614865, "lon": -176.0640586273859, "alt_km": 1028.3180637344121, "timestamp": "2025-12-03T06:58:43.519279+00:00", "meta": {"OBJECT_NAME": "FENGYUN 1C DEB", "OBJECT_ID": "1999-025BMN", "EPOCH": "2025-12-02T08:40:56.043264", "MEAN_MOTION": 14.03060296, "ECCENTRICITY": 0.03084884, "INCLINATION": 98.6812, "RA_OF_ASC_NODE": 184.4779, "ARG_OF_PERICENTER": 143.2966, "MEAN_ANOMALY": 218.9768, "EPHEMERIS_TYPE": 0, "CLASSIFICATION_TYPE": "U", "NORAD_CAT_ID": 31256, "ELEMENT_SET_NO": 999, "REV_AT_EPOCH": 64836, "BSTAR": 0.0037600562, "MEAN_MOTION_DOT": 8.874e-05, "MEAN_MOTION_DDOT": 0}, "tle": {"line1": "1 31256U 99025BMN 25336.36175976  .00008874  00000+0  37601-2 0  9990", "line2": "2 31256  98.6812 184.4779 0308488 143.2966 218.9768 14.03060296648364"}}, "geometry": {"type": "Point", "coordinates": [-176.0640586273859, 9.275175491614865]}}]}